NORAD_CAT_ID,OBJECT_NAME,OBJECT_TYPE,EPOCH,MEAN_MOTION,ECCENTRICITY,INCLINATION,RA_OF_ASC_NODE,ARG_OF_PERICENTER,MEAN_ANOMALY,BSTAR,MEAN_MOTION_DOT,MEAN_MOTION_DDOT,TLE_LINE0,TLE_LINE1,TLE_LINE2,SEMIMAJOR_AXIS,PERIOD,APOGEE,PERIGEE,DECAYED
51854.0,STARLINK-3541,PAYLOAD,2024-04-16 13:46:35,15.08838093,0.0001415,53.2175,246.1482,71.2281,288.8864,1.121e-06,-2.7e-06,0.0,0 STARLINK-3541,1 51854U 22022C   24107.57401951 -.00000270  00000-0  11210-5 0  9997,2 51854  53.2175 246.1482 0001415  71.2281 288.8864 15.08838093118534,6917.886,95.438,540.73,538.772,0.0
51854.0,STARLINK-3541,PAYLOAD,2024-04-16 16:57:21,15.0885199,0.0001251,53.2177,245.5511,71.3001,288.8127,0.00022451,3.288e-05,0.0,0 STARLINK-3541,1 51854U 22022C   24107.70649308  .00003288  00000-0  22451-3 0  9990,2 51854  53.2177 245.5511 0001251  71.3001 288.8127 15.08851990118556,6917.844,95.437,540.574,538.843,0.0
51854.0,STARLINK-3541,PAYLOAD,2024-04-17 08:51:12,15.08840888,0.000118,53.2178,242.5778,89.3679,270.7449,8.4593e-05,1.059e-05,0.0,0 STARLINK-3541,1 51854U 22022C   24108.36889902  .00001059  00000-0  84593-4 0  9999,2 51854  53.2178 242.5778 0001180  89.3679 270.7449 15.08840888118652,6917.878,95.437,540.559,538.926,0.0
51854.0,STARLINK-3541,PAYLOAD,2024-04-17 13:37:22,15.08833569,0.0001185,53.2172,241.6841,87.1977,272.9151,3.4102e-06,-2.34e-06,0.0,0 STARLINK-3541,1 51854U 22022C   24108.56762234 -.00000234  00000-0  34102-5 0  9996,2 51854  53.2172 241.6841 0001185  87.1977 272.9151 15.08833569118684,6917.9,95.438,540.585,538.945,0.0
51854.0,STARLINK-3541,PAYLOAD,2024-04-17 15:12:45,15.08836543,0.0001274,53.2166,241.3862,82.6324,277.4813,2.8043e-05,1.58e-06,0.0,0 STARLINK-3541,1 51854U 22022C   24108.63386268  .00000158  00000-0  28043-4 0  9993,2 51854  53.2166 241.3862 0001274  82.6324 277.4813 15.08836543118693,6917.891,95.438,540.637,538.875,0.0
51854.0,STARLINK-3541,PAYLOAD,2024-04-18 11:52:47,15.08833937,0.0001332,53.2169,237.5261,85.8932,274.2212,0.00016967,2.413e-05,0.0,0 STARLINK-3541,1 51854U 22022C   24109.49498898  .00002413  00000-0  16967-3 0  9998,2 51854  53.2169 237.5261 0001332  85.8932 274.2212 15.08833937118828,6917.899,95.438,540.685,538.842,0.0
51854.0,STARLINK-3541,PAYLOAD,2024-04-18 13:28:10,15.08833449,0.0001208,53.217,237.2254,73.2135,286.899,0.00026217,3.886e-05,0.0,0 STARLINK-3541,1 51854U 22022C   24109.56122993  .00003886  00000-0  26217-3 0  9990,2 51854  53.2170 237.2254 0001208  73.2135 286.8990 15.08833449118838,6917.9,95.438,540.601,538.93,0.0
51854.0,STARLINK-3541,PAYLOAD,2024-04-18 15:03:33,15.08842072,0.0001447,53.2173,236.9278,65.0879,295.0264,0.00011607,1.56e-05,0.0,0 STARLINK-3541,1 51854U 22022C   24109.62746608  .00001560  00000-0  11607-3 0  9996,2 51854  53.2173 236.9278 0001447  65.0879 295.0264 15.08842072118841,6917.874,95.437,540.74,538.738,0.0
51854.0,STARLINK-3541,PAYLOAD,2024-04-19 13:18:57,15.08834086,0.0001579,53.2185,232.7662,82.9324,277.1847,0.00015887,2.241e-05,0.0,0 STARLINK-3541,1 51854U 22022C   24110.55483440  .00002241  00000-0  15887-3 0  9993,2 51854  53.2185 232.7662 0001579  82.9324 277.1847 15.08834086118983,6917.898,95.438,540.856,538.671,0.0
51854.0,STARLINK-3541,PAYLOAD,2024-04-19 18:05:06,15.08838386,0.0001474,53.2177,231.869,95.3329,264.7832,0.00020423,2.964e-05,0.0,0 STARLINK-3541,1 51854U 22022C   24110.75355172  .00002964  00000-0  20423-3 0  9999,2 51854  53.2177 231.8690 0001474  95.3329 264.7832 15.08838386119010,6917.885,95.438,540.77,538.731,0.0
51854.0,STARLINK-3541,PAYLOAD,2024-04-20 13:09:43,15.08854209,0.0001518,53.2186,228.3066,97.1084,263.0081,0.00024825,3.667e-05,0.0,0 STARLINK-3541,1 51854U 22022C   24111.54841981  .00003667  00000-0  24825-3 0  9996,2 51854  53.2186 228.3066 0001518  97.1084 263.0081 15.08854209119138,6917.837,95.437,540.752,538.652,0.0
51854.0,STARLINK-3541,PAYLOAD,2024-04-20 14:45:09,15.08798987,0.0001759,53.2187,228.0129,69.6931,290.425,-0.00055162,-9.047e-05,0.0,0 STARLINK-3541,1 51854U 22022C   24111.61468823 -.00009047  00000-0 -55162-3 0  9992,2 51854  53.2187 228.0129 0001759  69.6931 290.4250 15.08798987119141,6918.006,95.44,541.088,538.654,0.0
51854.0,STARLINK-3541,PAYLOAD,2024-04-21 14:35:54,15.08854369,0.0001521,53.2171,223.5476,89.6475,270.4691,0.00042432,6.474e-05,0.0,0 STARLINK-3541,1 51854U 22022C   24112.60827241  .00006474  00000-0  42432-3 0  9990,2 51854  53.2171 223.5476 0001521  89.6475 270.4691 15.08854369119291,6917.836,95.437,540.754,538.649,0.0
51854.0,STARLINK-3541,PAYLOAD,2024-04-22 06:29:46,15.08844045,0.0001727,53.2188,220.5816,103.5315,256.5869,0.00037275,5.65e-05,0.0,0 STARLINK-3541,1 51854U 22022C   24113.27067453  .00005650  00000-0  37275-3 0  9999,2 51854  53.2188 220.5816 0001727 103.5315 256.5869 15.08844045119394,6917.868,95.437,540.928,538.538,0.0
51854.0,STARLINK-3541,PAYLOAD,2024-04-22 14:26:42,15.08837426,0.0001554,53.2177,219.0843,97.8765,262.2404,0.00010278,1.348e-05,0.0,0 STARLINK-3541,1 51854U 22022C   24113.60187835  .00001348  00000-0  10278-3 0  9997,2 51854  53.2177 219.0843 0001554  97.8765 262.2404 15.08837426119447,6917.888,95.438,540.828,538.678,0.0
51854.0,STARLINK-3541,PAYLOAD,2024-04-23 14:17:29,15.0884255,0.0001697,53.2177,214.6265,70.819,289.2986,-8.976e-05,-1.716e-05,0.0,0 STARLINK-3541,1 51854U 22022C   24114.59548232 -.00001716  00000-0 -89760-4 0  9992,2 51854  53.2177 214.6265 0001697  70.8190 289.2986 15.08842550119591,6917.873,95.437,540.912,538.564,0.0
51854.0,STARLINK-3541,PAYLOAD,2024-04-24 12:32:53,15.08843121,0.0001402,53.2175,210.464,86.6164,273.4988,0.00019211,2.771e-05,0.0,0 STARLINK-3541,1 51854U 22022C   24115.52284120  .00002771  00000-0  19211-3 0  9992,2 51854  53.2175 210.4640 0001402  86.6164 273.4988 15.08843121119738,6917.871,95.437,540.706,538.766,0.0
51854.0,STARLINK-3541,PAYLOAD,2024-04-25 12:23:40,15.08840963,0.0001233,53.2175,206.0027,102.4606,257.6524,4.1817e-05,3.78e-06,0.0,0 STARLINK-3541,1 51854U 22022C   24116.51644332  .00000378  00000-0  41817-4 0  9996,2 51854  53.2175 206.0027 0001233 102.4606 257.6524 15.08840963119885,6917.877,95.437,540.595,538.889,0.0
51854.0,STARLINK-3541,PAYLOAD,2024-04-26 12:14:27,15.08844596,0.0001547,53.2187,201.5454,88.1092,272.0077,0.00011701,1.575e-05,0.0,0 STARLINK-3541,1 51854U 22022C   24117.51003884  .00001575  00000-0  11701-3 0  9996,2 51854  53.2187 201.5454 0001547  88.1092 272.0077 15.08844596120038,6917.866,95.437,540.802,538.661,0.0
51854.0,STARLINK-3541,PAYLOAD,2024-04-27 05:43:41,15.08847292,0.0001547,53.2184,198.2729,89.3144,270.8025,0.00017551,2.507e-05,0.0,0 STARLINK-3541,1 51854U 22022C   24118.23867385  .00002507  00000-0  17551-3 0  9995,2 51854  53.2184 198.2729 0001547  89.3144 270.8025 15.08847292120140,6917.858,95.437,540.793,538.653,0.0
51854.0,STARLINK-3541,PAYLOAD,2024-04-27 12:05:14,15.08845719,0.0001373,53.2172,197.0796,83.9391,276.1758,0.00015024,2.104e-05,0.0,0 STARLINK-3541,1 51854U 22022C   24118.50363474  .00002104  00000-0  15024-3 0  9991,2 51854  53.2172 197.0796 0001373  83.9391 276.1758 15.08845719120187,6917.863,95.437,540.678,538.778,0.0
51854.0,STARLINK-3541,PAYLOAD,2024-04-27 21:37:31,15.08855965,0.0001516,53.2192,195.3018,95.3696,264.747,0.0001905,2.746e-05,0.0,0 STARLINK-3541,1 51854U 22022C   24118.90106408  .00002746  00000-0  19050-3 0  9992,2 51854  53.2192 195.3018 0001516  95.3696 264.7470 15.08855965120246,6917.832,95.437,540.745,538.648,0.0
51854.0,STARLINK-3541,PAYLOAD,2024-04-28 05:34:29,15.08839138,0.0002846,53.218,193.8119,80.1405,279.9908,2.4291e-06,-2.5e-06,0.0,0 STARLINK-3541,1 51854U 22022C   24119.23228359 -.00000250  00000-0  24291-5 0  9993,2 51854  53.2180 193.8119 0002846  80.1405 279.9908 15.08839138120298,6917.883,95.438,541.717,537.779,0.0
51854.0,STARLINK-3541,PAYLOAD,2024-04-28 11:56:02,15.08825739,0.0001675,53.2189,192.6265,89.1979,270.9205,-9.0178e-05,-1.722e-05,0.0,0 STARLINK-3541,1 51854U 22022C   24119.49725368 -.00001722  00000-0 -90178-4 0  9995,2 51854  53.2189 192.6265 0001675  89.1979 270.9205 15.08825739120338,6917.924,95.438,540.948,538.63,0.0
51854.0,STARLINK-3541,PAYLOAD,2024-04-28 21:28:21,15.08834316,0.0001651,53.219,190.8427,90.5284,269.5897,-5.0723e-05,-1.095e-05,0.0,0 STARLINK-3541,1 51854U 22022C   24119.89468827 -.00001095  00000-0 -50723-4 0  9998,2 51854  53.2190 190.8427 0001651  90.5284 269.5897 15.08834316120397,6917.898,95.438,540.905,538.621,0.0
51854.0,STARLINK-3541,PAYLOAD,2024-04-29 11:46:48,15.08836911,0.0001578,53.2171,188.166,92.6762,267.4411,7.6496e-05,9.3e-06,0.0,0 STARLINK-3541,1 51854U 22022C   24120.49084336  .00000930  00000-0  76496-4 0  9995,2 51854  53.2171 188.1660 0001578  92.6762 267.4411 15.08836911120489,6917.89,95.438,540.846,538.663,0.0
51854.0,STARLINK-3541,PAYLOAD,2024-04-29 21:19:07,15.08844842,0.0001587,53.2174,186.3818,90.1563,269.9611,0.00014279,1.986e-05,0.0,0 STARLINK-3541,1 51854U 22022C   24120.88828016  .00001986  00000-0  14279-3 0  9991,2 51854  53.2174 186.3818 0001587  90.1563 269.9611 15.08844842120547,6917.866,95.437,540.828,538.633,0.0
51854.0,STARLINK-3541,PAYLOAD,2024-04-30 11:37:36,15.08844476,0.0001617,53.2171,183.7051,84.1745,275.9432,0.00032678,4.917e-05,0.0,0 STARLINK-3541,1 51854U 22022C   24121.48444479  .00004917  00000-0  32678-3 0  9995,2 51854  53.2171 183.7051 0001617  84.1745 275.9432 15.08844476120634,6917.867,95.437,540.85,538.613,0.0
51854.0,STARLINK-3541,PAYLOAD,2024-04-30 21:09:54,15.08857801,0.0001614,53.2166,181.9208,82.8897,277.2279,0.00043184,6.595e-05,0.0,0 STARLINK-3541,1 51854U 22022C   24121.88187789  .00006595  00000-0  43184-3 0  9995,2 51854  53.2166 181.9208 0001614  82.8897 277.2279 15.08857801120698,6917.826,95.436,540.808,538.574,0.0
51854.0,STARLINK-3541,PAYLOAD,2024-05-01 09:52:59,15.0885612,0.0002329,53.2169,179.5425,83.3383,276.7874,0.00032224,4.846e-05,0.0,0 STARLINK-3541,1 51854U 22022C   24122.41179773  .00004846  00000-0  32224-3 0  9999,2 51854  53.2169 179.5425 0002329  83.3383 276.7874 15.08856120120772,6917.831,95.437,541.307,538.085,0.0
